NOAA 15                 
1 25338U 98030A   22324.45088275  .00000152  00000+0  81845-4 0  9990
2 25338  98.6300 351.8457 0010072 197.2227 162.8613 14.26198320275504
DMSP 5D-3 F15 (USA 147) 
1 25991U 99067A   22323.87737453  .00000133  00000+0  89799-4 0  9995
2 25991  99.0640 318.2003 0011037 106.8707  10.7853 14.16600203185779
DMSP 5D-3 F16 (USA 172) 
1 28054U 03048A   22324.46535376  .00000098  00000+0  75729-4 0  9996
2 28054  99.0013 316.1770 0006517 232.9243 290.0411 14.13708709985067
NOAA 18                 
1 28654U 05018A   22324.43981659  .00000183  00000+0  12266-3 0  9998
2 28654  98.9346  34.6373 0013427 248.8440 111.1297 14.12809833902090
METEOSAT-9 (MSG-2)      
1 28912U 05049B   22323.84223244  .00000149  00000+0  00000+0 0  9993
2 28912   6.3673  65.2491 0001320 184.1202 158.3526  1.00270761 61944
EWS-G1 (GOES 13)        
1 29155U 06018A   22323.85988017  .00000059  00000+0  00000+0 0  9997
2 29155   0.9671  94.0216 0006689 141.4056 194.3235  1.00271602 30288
DMSP 5D-3 F17 (USA 191) 
1 29522U 06050A   22324.44656318  .00000133  00000+0  92371-4 0  9993
2 29522  98.7628 336.5545 0010012 171.6674 188.4667 14.14139107827951
FENGYUN 3A              
1 32958U 08026A   22324.46915825  .00000099  00000+0  67729-4 0  9998
2 32958  98.5256 280.8820 0007759 296.1954  63.8424 14.18763057750456
FENGYUN 2E              
1 33463U 08066A   22323.85033878 -.00000183  00000+0  00000+0 0  9994
2 33463   6.2496  64.3717 0001072 250.1169 137.0608  1.00279488 51000
NOAA 19                 
1 33591U 09005A   22324.52982588  .00000185  00000+0  12494-3 0  9991
2 33591  99.1309   1.8229 0014804 108.9124 251.3653 14.12640265710484
GOES 14                 
1 35491U 09033A   22323.52543640 -.00000074  00000+0  00000+0 0  9998
2 35491   0.2292 264.2786 0018229 317.5642 281.6694  1.00272395 49013
METEOR-M 1              
1 35865U 09049A   22324.49339760  .00000094  00000+0  61365-4 0  9990
2 35865  98.5509 290.0890 0003163 117.8222 242.3277 14.22380112683861
DMSP 5D-3 F18 (USA 210) 
1 35951U 09057A   22324.55302775  .00000191  00000+0  12438-3 0  9992
2 35951  98.7424 300.2371 0011400   7.9638 352.1714 14.13590808675161
GOES 15                 
1 36411U 10008A   22323.60469306  .00000074  00000+0  00000+0 0  9999
2 36411   0.1878 281.1435 0003393 276.4560 310.5051  1.00277067 46570
COMS 1                  
1 36744U 10032A   22323.78696987 -.00000323  00000+0  00000+0 0  9999
2 36744   1.4705  91.7578 0000822 147.8073 230.7196  1.00272876 38004
FENGYUN 3B              
1 37214U 10059A   22324.34945361  .00000020  00000+0  34626-4 0  9996
2 37214  99.0935 333.1032 0021183 275.7897  84.0866 14.14274923622996
SUOMI NPP               
1 37849U 11061A   22324.47449891  .00000077  00000+0  57260-4 0  9996
2 37849  98.7472 260.9434 0001041  89.9189  21.0001 14.19562290573321
FENGYUN 2F              
1 38049U 12002A   22323.81986133 -.00000336  00000+0  00000+0 0  9991
2 38049   4.1693  78.4669 0002460 271.6184 116.2077  1.00276453 39790
METEOSAT-10 (MSG-3)     
1 38552U 12035B   22324.19366303  .00000084  00000+0  00000+0 0  9998
2 38552   1.7747  48.8806 0001630 142.6615 306.9587  1.00270326 38134
METOP-B                 
1 38771U 12049A   22324.46739913  .00000097  00000+0  64502-4 0  9993
2 38771  98.7105  22.0075 0000453  70.4113 356.0948 14.21495416527895
FENGYUN 3C              
1 39260U 13052A   22324.36778813  .00000083  00000+0  62885-4 0  9990
2 39260  98.4434 344.5074 0010923 179.6624 180.4557 14.15960560473989
METEOR-M 2              
1 40069U 14037A   22324.31901562 -.00000011  00000+0  14060-4 0  9991
2 40069  98.4281 334.9860 0004841 221.6400 138.4408 14.20726625433999
HIMAWARI-8              
1 40267U 14060A   22324.43502275 -.00000254  00000+0  00000+0 0  9991
2 40267   0.0148 130.6058 0000951 114.9533 111.1085  1.00271128 29783
FENGYUN 2G              
1 40367U 14090A   22324.41924456 -.00000279  00000+0  00000+0 0  9999
2 40367   2.3224  87.8334 0001790 218.2759   3.7496  1.00274803 28957
METEOSAT-11 (MSG-4)     
1 40732U 15034A   22324.31646525  .00000017  00000+0  00000+0 0  9990
2 40732   0.4921 347.1214 0000922 139.6052  46.6583  1.00267856 26921
ELEKTRO-L 2             
1 41105U 15074A   22324.26060571 -.00000092  00000+0  00000+0 0  9998
2 41105   3.3765  86.2698 0002952 142.2762 270.0980  1.00271340 25436
HIMAWARI-9              
1 41836U 16064A   22324.57709542 -.00000253  00000+0  00000+0 0  9990
2 41836   0.0223 123.3330 0000914 114.0757 170.6627  1.00267792 22226
GOES 16                 
1 41866U 16071A   22323.81817493 -.00000227  00000+0  00000+0 0  9993
2 41866   0.0487 265.1379 0000813  19.4339 353.6300  1.00270865 22025
FENGYUN 4A              
1 41882U 16077A   22324.22323485 -.00000309  00000+0  00000+0 0  9997
2 41882   0.0932 293.4562 0005348  99.5895 211.1981  1.00273903 21893
CYGFM05                 
1 41884U 16078A   22324.24435712  .00003288  00000+0  16223-3 0  9995
2 41884  34.9568 310.9458 0013571  45.9636 314.2192 15.17354596328553
CYGFM04                 
1 41885U 16078B   22324.30656892  .00003646  00000+0  17694-3 0  9998
2 41885  34.9496 298.9022 0011936  66.0521 294.1440 15.17905742328676
CYGFM02                 
1 41886U 16078C   22323.63573173  .00003442  00000+0  16693-3 0  9996
2 41886  34.9589 305.3500 0012615  52.8015 307.3848 15.17942295328493
CYGFM01                 
1 41887U 16078D   22323.67415556  .00003342  00000+0  16580-3 0  9995
2 41887  34.9534 317.1466 0014084  39.6122 320.5617 15.17149801328437
CYGFM08                 
1 41888U 16078E   22324.20192974  .00003651  00000+0  17846-3 0  9991
2 41888  34.9503 305.7596 0013171  58.4008 301.7988 15.17645106328564
CYGFM06                 
1 41889U 16078F   22323.35138127  .00003962  00000+0  19187-3 0  9992
2 41889  34.9584 305.7768 0011633  50.0879 310.0854 15.17957748328529
CYGFM07                 
1 41890U 16078G   22323.34271635  .00004072  00000+0  19755-3 0  9999
2 41890  34.9522 304.6961 0011456  55.0641 305.1146 15.17885730328521
CYGFM03                 
1 41891U 16078H   22324.06481495  .00003298  00000+0  16034-3 0  9993
2 41891  34.9553 300.6980 0010980  59.6183 300.5613 15.17892247328625
FENGYUN 3D              
1 43010U 17072A   22324.30178723  .00000104  00000+0  70846-4 0  9992
2 43010  98.8332 268.2365 0001474 146.5278 213.5993 14.19112482259870
NOAA 20                 
1 43013U 17073A   22324.55783836  .00000059  00000+0  48691-4 0  9992
2 43013  98.7311 260.7487 0000998  54.3057 305.8212 14.19560559259378
GOES 17                 
1 43226U 18022A   22324.36854904  .00000120  00000+0  00000+0 0  9993
2 43226   0.0144 278.0725 0000267 296.3006 200.3261  1.00269702 17357
FENGYUN 2H              
1 43491U 18050A   22323.82499543 -.00000104  00000+0  00000+0 0  9995
2 43491   1.5380  94.2170 0003296  74.3082 266.3198  1.00269498 16345
METOP-C                 
1 43689U 18087A   22324.42071527  .00000093  00000+0  62557-4 0  9995
2 43689  98.7151  21.9918 0002319 319.1751  40.9252 14.21488935209463
GEO-KOMPSAT-2A          
1 43823U 18100A   22324.45604847 -.00000322  00000+0  00000+0 0  9997
2 43823   0.0226  84.8132 0000946  43.1295 223.9455  1.00269548 14573
METEOR-M2 2             
1 44387U 19038A   22324.31018440  .00000042  00000+0  37941-4 0  9994
2 44387  98.7450 283.9924 0001531 139.9593 220.1703 14.23731268175585
FENGYUN 3E              
1 49008U 21062A   22324.26297676  .00000022  00000+0  30824-4 0  9994
2 49008  98.7175 323.8083 0000732 249.3458 110.7656 14.19746334 71426
GOES 18                 
1 51850U 22021A   22322.43093833  .00000114  00000+0  00000+0 0  9994
2 51850   0.0028  60.4142 0002012 179.1615 196.1143  1.00272100  2676
JPSS-2                  
1 54234U 22150A   22324.08086744 -.00004510  00000+0 -19380-2 0  9992
2 54234  98.6969 260.3729 0023699 212.3782 147.6185 14.24089286  1377
